start=new Date('2021-12-24T00:00:00.000Z').valueOf();
sats=[{"ELEMENT_SET_NO":"999","PERIOD":"95.592","EPHEMERIS_TYPE":"0","TIME_SYSTEM":"UTC","REV_AT_EPOCH":"7766","LAUNCH_DATE":"2020-08-07","GP_ID":"192322941","OBJECT_ID":"2020-055AV","OBJECT_TYPE":"PAYLOAD","PERIAPSIS":"545.625","INCLINATION":"53.0531","MEAN_ELEMENT_THEORY":"SGP4","OBJECT_NAME":"STARLINK-1536","BSTAR":"0.00001847000000","CENTER_NAME":"EARTH","MEAN_MOTION_DDOT":"0.0000000000000","NORAD_CAT_ID":"46070","RCS_SIZE":"LARGE","APOAPSIS":"548.785","TLE_LINE1":"1 46070U 20055AV  21357.75764598 -.00000007  00000-0  18470-4 0  9990","TLE_LINE2":"2 46070  53.0531 156.1690 0002282  89.8500 270.2750 15.06402751 77668","DECAY_DATE":null,"CLASSIFICATION_TYPE":"U","ECCENTRICITY":"0.00022820","MEAN_MOTION_DOT":"-0.00000007","SITE":"AFETR","MEAN_MOTION":"15.06402751","FILE":"3249421","ARG_OF_PERICENTER":"89.8500","RA_OF_ASC_NODE":"156.1690","REF_FRAME":"TEME","MEAN_ANOMALY":"270.2750","SEMIMAJOR_AXIS":"6925.340","COUNTRY_CODE":"US","EPOCH":"2021-12-23T18:11:00.612672"},{"MEAN_MOTION_DOT":"0.00000006","ECCENTRICITY":"0.00021220","CLASSIFICATION_TYPE":"U","DECAY_DATE":null,"TLE_LINE2":"2 46071  53.0525 156.3940 0002122  94.9008 265.2223 15.06400548 77655","SITE":"AFETR","MEAN_ANOMALY":"265.2223","SEMIMAJOR_AXIS":"6925.347","RA_OF_ASC_NODE":"156.3940","REF_FRAME":"TEME","ARG_OF_PERICENTER":"94.9008","FILE":"3249421","MEAN_MOTION":"15.06400548","EPOCH":"2021-12-23T17:02:00.513024","COUNTRY_CODE":"US","REV_AT_EPOCH":"7765","TIME_SYSTEM":"UTC","EPHEMERIS_TYPE":"0","PERIOD":"95.592","ELEMENT_SET_NO":"999","MEAN_ELEMENT_THEORY":"SGP4","INCLINATION":"53.0525","PERIAPSIS":"545.742","OBJECT_ID":"2020-055AW","OBJECT_TYPE":"PAYLOAD","GP_ID":"192322192","LAUNCH_DATE":"2020-08-07","BSTAR":"0.00001935000000","OBJECT_NAME":"STARLINK-1538","TLE_LINE1":"1 46071U 20055AW  21357.70972816  .00000006  00000-0  19350-4 0  9996","APOAPSIS":"548.681","RCS_SIZE":"LARGE","NORAD_CAT_ID":"46071","MEAN_MOTION_DDOT":"0.0000000000000","CENTER_NAME":"EARTH"},{"MEAN_MOTION":"15.06395163","FILE":"3249421","ARG_OF_PERICENTER":"84.0192","REF_FRAME":"TEME","RA_OF_ASC_NODE":"156.2657","SEMIMAJOR_AXIS":"6925.363","MEAN_ANOMALY":"276.1041","COUNTRY_CODE":"US","EPOCH":"2021-12-23T17:37:48.072288","TLE_LINE2":"2 46072  53.0558 156.2657 0002135  84.0192 276.1041 15.06395163 77648","DECAY_DATE":null,"CLASSIFICATION_TYPE":"U","ECCENTRICITY":"0.00021350","MEAN_MOTION_DOT":"-0.00000265","SITE":"AFETR","OBJECT_NAME":"STARLINK-1539","BSTAR":"0.00000110540000","CENTER_NAME":"EARTH","MEAN_MOTION_DDOT":"0.0000000000000","NORAD_CAT_ID":"46072","RCS_SIZE":"LARGE","APOAPSIS":"548.707","TLE_LINE1":"1 46072U 20055AX  21357.73458417 -.00000265  00000-0  11054-5 0  9998","ELEMENT_SET_NO":"999","PERIOD":"95.592","EPHEMERIS_TYPE":"0","TIME_SYSTEM":"UTC","REV_AT_EPOCH":"7764","LAUNCH_DATE":"2020-08-07","GP_ID":"192322443","OBJECT_ID":"2020-055AX","OBJECT_TYPE":"PAYLOAD","PERIAPSIS":"545.750","MEAN_ELEMENT_THEORY":"SGP4","INCLINATION":"53.0558"},{"APOAPSIS":"548.840","RCS_SIZE":"LARGE","TLE_LINE1":"1 46073U 20055AY  21357.81662228  .00001394  00000-0  11248-3 0  9991","CENTER_NAME":"EARTH","NORAD_CAT_ID":"46073","MEAN_MOTION_DDOT":"0.0000000000000","OBJECT_NAME":"STARLINK-1542","BSTAR":"0.00011248000000","PERIAPSIS":"545.550","INCLINATION":"53.0530","MEAN_ELEMENT_THEORY":"SGP4","LAUNCH_DATE":"2020-08-07","OBJECT_TYPE":"PAYLOAD","OBJECT_ID":"2020-055AY","GP_ID":"192322688","EPHEMERIS_TYPE":"0","PERIOD":"95.592","REV_AT_EPOCH":"7766","TIME_SYSTEM":"UTC","ELEMENT_SET_NO":"999","EPOCH":"2021-12-23T19:35:56.164992","COUNTRY_CODE":"US","RA_OF_ASC_NODE":"155.9192","REF_FRAME":"TEME","MEAN_ANOMALY":"270.5848","SEMIMAJOR_AXIS":"6925.330","FILE":"3249421","MEAN_MOTION":"15.06405987","ARG_OF_PERICENTER":"89.5413","SITE":"AFETR","CLASSIFICATION_TYPE":"U","DECAY_DATE":null,"MEAN_MOTION_DOT":"0.00001394","ECCENTRICITY":"0.00023750","TLE_LINE2":"2 46073  53.0530 155.9192 0002375  89.5413 270.5848 15.06405987 77662"},{"OBJECT_NAME":"STARLINK-1549","BSTAR":"0.00001823400000","RCS_SIZE":"LARGE","APOAPSIS":"548.763","TLE_LINE1":"1 46074U 20055AZ  21357.86822659 -.00000010  00000-0  18234-4 0  9991","CENTER_NAME":"EARTH","MEAN_MOTION_DDOT":"0.0000000000000","NORAD_CAT_ID":"46074","PERIOD":"95.592","EPHEMERIS_TYPE":"0","TIME_SYSTEM":"UTC","REV_AT_EPOCH":"7766","ELEMENT_SET_NO":"999","PERIAPSIS":"545.668","MEAN_ELEMENT_THEORY":"SGP4","INCLINATION":"53.0535","LAUNCH_DATE":"2020-08-07","GP_ID":"192323442","OBJECT_TYPE":"PAYLOAD","OBJECT_ID":"2020-055AZ","RA_OF_ASC_NODE":"155.6777","REF_FRAME":"TEME","SEMIMAJOR_AXIS":"6925.351","MEAN_ANOMALY":"273.9749","MEAN_MOTION":"15.06399361","FILE":"3249421","ARG_OF_PERICENTER":"86.1495","EPOCH":"2021-12-23T20:50:14.777376","COUNTRY_CODE":"US","DECAY_DATE":null,"CLASSIFICATION_TYPE":"U","ECCENTRICITY":"0.00022340","MEAN_MOTION_DOT":"-0.00000010","TLE_LINE2":"2 46074  53.0535 155.6777 0002234  86.1495 273.9749 15.06399361 77666","SITE":"AFETR"},{"LAUNCH_DATE":"2020-08-07","OBJECT_TYPE":"PAYLOAD","OBJECT_ID":"2020-055BA","GP_ID":"192321692","PERIAPSIS":"545.648","INCLINATION":"53.0519","MEAN_ELEMENT_THEORY":"SGP4","ELEMENT_SET_NO":"999","EPHEMERIS_TYPE":"0","PERIOD":"95.592","REV_AT_EPOCH":"7766","TIME_SYSTEM":"UTC","CENTER_NAME":"EARTH","NORAD_CAT_ID":"46075","MEAN_MOTION_DDOT":"0.0000000000000","RCS_SIZE":"LARGE","APOAPSIS":"548.736","TLE_LINE1":"1 46075U 20055BA  21357.82767006  .00002661  00000-0  19744-3 0  9991","OBJECT_NAME":"STARLINK-1551","BSTAR":"0.00019744000000","SITE":"AFETR","TLE_LINE2":"2 46075  53.0519 155.8666 0002230  93.9037 266.2207 15.06407028 77666","CLASSIFICATION_TYPE":"U","DECAY_DATE":null,"MEAN_MOTION_DOT":"0.00002661","ECCENTRICITY":"0.00022300","COUNTRY_CODE":"US","EPOCH":"2021-12-23T19:51:50.693184","FILE":"3249421","MEAN_MOTION":"15.06407028","ARG_OF_PERICENTER":"93.9037","RA_OF_ASC_NODE":"155.8666","REF_FRAME":"TEME","MEAN_ANOMALY":"266.2207","SEMIMAJOR_AXIS":"6925.327"},{"OBJECT_NAME":"STARLINK-1552","BSTAR":"0.00009217900000","RCS_SIZE":"LARGE","APOAPSIS":"548.913","TLE_LINE1":"1 46076U 20055BB  21357.72078157  .00001092  00000-0  92179-4 0  9994","CENTER_NAME":"EARTH","MEAN_MOTION_DDOT":"0.0000000000000","NORAD_CAT_ID":"46076","PERIOD":"95.592","EPHEMERIS_TYPE":"0","TIME_SYSTEM":"UTC","REV_AT_EPOCH":"7763","ELEMENT_SET_NO":"999","PERIAPSIS":"545.489","INCLINATION":"53.0536","MEAN_ELEMENT_THEORY":"SGP4","LAUNCH_DATE":"2020-08-07","GP_ID":"192321943","OBJECT_TYPE":"PAYLOAD","OBJECT_ID":"2020-055BB","RA_OF_ASC_NODE":"156.3472","REF_FRAME":"TEME","MEAN_ANOMALY":"272.5069","SEMIMAJOR_AXIS":"6925.336","MEAN_MOTION":"15.06404171","FILE":"3249421","ARG_OF_PERICENTER":"87.6203","EPOCH":"2021-12-23T17:17:55.527648","COUNTRY_CODE":"US","DECAY_DATE":null,"CLASSIFICATION_TYPE":"U","ECCENTRICITY":"0.00024720","MEAN_MOTION_DOT":"0.00001092","TLE_LINE2":"2 46076  53.0536 156.3472 0002472  87.6203 272.5069 15.06404171 77639","SITE":"AFETR"},{"REV_AT_EPOCH":"7761","TIME_SYSTEM":"UTC","EPHEMERIS_TYPE":"0","PERIOD":"95.593","ELEMENT_SET_NO":"999","MEAN_ELEMENT_THEORY":"SGP4","INCLINATION":"53.0529","PERIAPSIS":"545.725","OBJECT_ID":"2020-055BC","OBJECT_TYPE":"PAYLOAD","GP_ID":"192323189","LAUNCH_DATE":"2020-08-07","BSTAR":"-0.00001229600000","OBJECT_NAME":"STARLINK-1559","TLE_LINE1":"1 46077U 20055BC  21357.76870748 -.00000465  00000-0 -12296-4 0  9992","RCS_SIZE":"LARGE","APOAPSIS":"548.742","NORAD_CAT_ID":"46077","MEAN_MOTION_DDOT":"0.0000000000000","CENTER_NAME":"EARTH","MEAN_MOTION_DOT":"-0.00000465","ECCENTRICITY":"0.00021780","CLASSIFICATION_TYPE":"U","DECAY_DATE":null,"TLE_LINE2":"2 46077  53.0529 156.1192 0002178  90.4009 269.7229 15.06393543 77612","SITE":"AFETR","MEAN_ANOMALY":"269.7229","SEMIMAJOR_AXIS":"6925.368","RA_OF_ASC_NODE":"156.1192","REF_FRAME":"TEME","ARG_OF_PERICENTER":"90.4009","FILE":"3249421","MEAN_MOTION":"15.06393543","EPOCH":"2021-12-23T18:26:56.326272","COUNTRY_CODE":"US"},{"DECAY_DATE":null,"CLASSIFICATION_TYPE":"U","ECCENTRICITY":"0.00023110","MEAN_MOTION_DOT":"0.00000135","TLE_LINE2":"2 46078  53.0543 155.6364 0002311  91.5926 268.5328 15.06404671 77648","SITE":"AFETR","REF_FRAME":"TEME","RA_OF_ASC_NODE":"155.6364","MEAN_ANOMALY":"268.5328","SEMIMAJOR_AXIS":"6925.334","MEAN_MOTION":"15.06404671","FILE":"3249421","ARG_OF_PERICENTER":"91.5926","EPOCH":"2021-12-23T21:06:09.885312","COUNTRY_CODE":"US","PERIOD":"95.592","EPHEMERIS_TYPE":"0","TIME_SYSTEM":"UTC","REV_AT_EPOCH":"7764","ELEMENT_SET_NO":"999","PERIAPSIS":"545.599","MEAN_ELEMENT_THEORY":"SGP4","INCLINATION":"53.0543","LAUNCH_DATE":"2020-08-07","GP_ID":"192322942","OBJECT_TYPE":"PAYLOAD","OBJECT_ID":"2020-055BD","OBJECT_NAME":"STARLINK-1563","BSTAR":"0.00002795000000","APOAPSIS":"548.800","RCS_SIZE":"LARGE","TLE_LINE1":"1 46078U 20055BD  21357.87928108  .00000135  00000-0  27950-4 0  9994","CENTER_NAME":"EARTH","MEAN_MOTION_DDOT":"0.0000000000000","NORAD_CAT_ID":"46078"},{"MEAN_ELEMENT_THEORY":"SGP4","INCLINATION":"53.0529","PERIAPSIS":"545.590","OBJECT_TYPE":"PAYLOAD","OBJECT_ID":"2020-055BE","GP_ID":"192322193","LAUNCH_DATE":"2020-08-07","REV_AT_EPOCH":"7766","TIME_SYSTEM":"UTC","EPHEMERIS_TYPE":"0","PERIOD":"95.592","ELEMENT_SET_NO":"999","TLE_LINE1":"1 46079U 20055BE  21357.80555583  .00000570  00000-0  57204-4 0  9999","RCS_SIZE":"LARGE","APOAPSIS":"548.792","NORAD_CAT_ID":"46079","MEAN_MOTION_DDOT":"0.0000000000000","CENTER_NAME":"EARTH","BSTAR":"0.00005720400000","OBJECT_NAME":"STARLINK-1566","SITE":"AFETR","MEAN_MOTION_DOT":"0.00000570","ECCENTRICITY":"0.00023120","CLASSIFICATION_TYPE":"U","DECAY_DATE":null,"TLE_LINE2":"2 46079  53.0529 155.9611 0002312  91.2679 268.8574 15.06407439 77667","EPOCH":"2021-12-23T19:20:00.023712","COUNTRY_CODE":"US","SEMIMAJOR_AXIS":"6925.326","MEAN_ANOMALY":"268.8574","RA_OF_ASC_NODE":"155.9611","REF_FRAME":"TEME","ARG_OF_PERICENTER":"91.2679","FILE":"3249421","MEAN_MOTION":"15.06407439"}];
